STARLINK-36900          
1 67973U 26038N   26066.91668981 -.01599934  74229-3 -41580-2 0  9998
2 67973  97.2718  77.0816 0001129  73.1358 301.2507 15.95123174  2915
STARLINK-36901          
1 67974U 26038P   26066.91668981 -.01609602  74949-3 -42159-2 0  9995
2 67974  97.2718  77.0799 0001312  66.2628 304.2154 15.94977023  2913
STARLINK-36883          
1 67975U 26038Q   26066.91668981 -.01583685  73277-3 -39911-2 0  9993
2 67975  97.2709  77.0880 0001194  65.2783 324.1999 15.95696693  2914
STARLINK-36880          
1 67976U 26038R   26066.91668981 -.01589994  73482-3 -41014-2 0  9998
2 67976  97.2715  77.0831 0001208  69.6294 308.5611 15.95261639  2914
STARLINK-36904          
1 67977U 26038S   26066.91668981 -.01590629  73763-3 -40396-2 0  9990
2 67977  97.2709  77.0860 0001191  62.4649 323.2287 15.95553820  2915
STARLINK-36364          
1 67978U 26038T   26066.91668981 -.01580610  73282-3 -39096-2 0  9991
2 67978  97.2701  77.0916 0001152  69.3567 329.0122 15.96044551  2911
STARLINK-36359          
1 67979U 26038U   26066.91668981 -.01598685  74328-3 -40965-2 0  9992
2 67979  97.2712  77.0840 0001208  68.7983 312.5606 15.95387825  2914
STARLINK-36882          
1 67980U 26038V   26066.91668981 -.01590649  74021-3 -39692-2 0  9991
2 67980  97.2705  77.0895 0001261  66.4862 327.6648 15.95882068  2910
STARLINK-36874          
1 67981U 26038W   26066.91668981 -.01585212  73772-3 -38962-2 0  9993
2 67981  97.2701  77.0929 0001273  60.3642 341.0978 15.96162558  2919
STARLINK-36879          
1 67982U 26038X   26066.91668981 -.01583438  73735-3 -38610-2 0  9991
2 67982  97.2697  77.0943 0001195  65.8732 339.3694 15.96310319  2918
STARLINK-36867          
1 67983U 26038Y   26066.91668981 -.01575866  73313-3 -37812-2 0  9993
2 67983  97.2694  77.0980 0001377  60.8975 352.0402 15.96606390  2919
STARLINK-36266          
1 67984U 26038Z   26066.91668981 -.01571487  72830-3 -37982-2 0  9990
2 67984  97.2697  77.0965 0001248  64.9208 344.5483 15.96471482  2880
