CCSDS_OMM_VERS = 2.0
CREATION_DATE  = 
ORIGINATOR     = 

OBJECT_NAME    = STARLINK-36900
OBJECT_ID      = 2026-038N
CENTER_NAME    = EARTH
REF_FRAME      = TEME
TIME_SYSTEM    = UTC
MEAN_ELEMENT_THEORY = SGP/SGP4

EPOCH          = 2026-03-07T22:00:01.999584
MEAN_MOTION    = 15.95123174
ECCENTRICITY   = .00011298
INCLINATION    = 97.2718
RA_OF_ASC_NODE = 77.0816
ARG_OF_PERICENTER = 73.1358
MEAN_ANOMALY   = 301.2507

EPHEMERIS_TYPE = 0
CLASSIFICATION_TYPE = U
NORAD_CAT_ID   = 67973
ELEMENT_SET_NO = 999
REV_AT_EPOCH   = 291
BSTAR          = -.41579617E-2
MEAN_MOTION_DOT = -.1599934E-1
MEAN_MOTION_DDOT = .74228976E-3

CCSDS_OMM_VERS = 2.0
CREATION_DATE  = 
ORIGINATOR     = 

OBJECT_NAME    = STARLINK-36901
OBJECT_ID      = 2026-038P
CENTER_NAME    = EARTH
REF_FRAME      = TEME
TIME_SYSTEM    = UTC
MEAN_ELEMENT_THEORY = SGP/SGP4

EPOCH          = 2026-03-07T22:00:01.999584
MEAN_MOTION    = 15.94977023
ECCENTRICITY   = .00013128
INCLINATION    = 97.2718
RA_OF_ASC_NODE = 77.0799
ARG_OF_PERICENTER = 66.2628
MEAN_ANOMALY   = 304.2154

EPHEMERIS_TYPE = 0
CLASSIFICATION_TYPE = U
NORAD_CAT_ID   = 67974
ELEMENT_SET_NO = 999
REV_AT_EPOCH   = 291
BSTAR          = -.42159163E-2
MEAN_MOTION_DOT = -.1609602E-1
MEAN_MOTION_DDOT = .74949376E-3

CCSDS_OMM_VERS = 2.0
CREATION_DATE  = 
ORIGINATOR     = 

OBJECT_NAME    = STARLINK-36883
OBJECT_ID      = 2026-038Q
CENTER_NAME    = EARTH
REF_FRAME      = TEME
TIME_SYSTEM    = UTC
MEAN_ELEMENT_THEORY = SGP/SGP4

EPOCH          = 2026-03-07T22:00:01.999584
MEAN_MOTION    = 15.95696693
ECCENTRICITY   = .00011942
INCLINATION    = 97.2709
RA_OF_ASC_NODE = 77.0880
ARG_OF_PERICENTER = 65.2783
MEAN_ANOMALY   = 324.1999

EPHEMERIS_TYPE = 0
CLASSIFICATION_TYPE = U
NORAD_CAT_ID   = 67975
ELEMENT_SET_NO = 999
REV_AT_EPOCH   = 291
BSTAR          = -.39911034E-2
MEAN_MOTION_DOT = -.1583685E-1
MEAN_MOTION_DDOT = .73276696E-3

CCSDS_OMM_VERS = 2.0
CREATION_DATE  = 
ORIGINATOR     = 

OBJECT_NAME    = STARLINK-36880
OBJECT_ID      = 2026-038R
CENTER_NAME    = EARTH
REF_FRAME      = TEME
TIME_SYSTEM    = UTC
MEAN_ELEMENT_THEORY = SGP/SGP4

EPOCH          = 2026-03-07T22:00:01.999584
MEAN_MOTION    = 15.95261639
ECCENTRICITY   = .00012087
INCLINATION    = 97.2715
RA_OF_ASC_NODE = 77.0831
ARG_OF_PERICENTER = 69.6294
MEAN_ANOMALY   = 308.5611

EPHEMERIS_TYPE = 0
CLASSIFICATION_TYPE = U
NORAD_CAT_ID   = 67976
ELEMENT_SET_NO = 999
REV_AT_EPOCH   = 291
BSTAR          = -.41014328E-2
MEAN_MOTION_DOT = -.1589994E-1
MEAN_MOTION_DDOT = .73481764E-3

CCSDS_OMM_VERS = 2.0
CREATION_DATE  = 
ORIGINATOR     = 

OBJECT_NAME    = STARLINK-36904
OBJECT_ID      = 2026-038S
CENTER_NAME    = EARTH
REF_FRAME      = TEME
TIME_SYSTEM    = UTC
MEAN_ELEMENT_THEORY = SGP/SGP4

EPOCH          = 2026-03-07T22:00:01.999584
MEAN_MOTION    = 15.95553820
ECCENTRICITY   = .00011912
INCLINATION    = 97.2709
RA_OF_ASC_NODE = 77.0860
ARG_OF_PERICENTER = 62.4649
MEAN_ANOMALY   = 323.2287

EPHEMERIS_TYPE = 0
CLASSIFICATION_TYPE = U
NORAD_CAT_ID   = 67977
ELEMENT_SET_NO = 999
REV_AT_EPOCH   = 291
BSTAR          = -.40395872E-2
MEAN_MOTION_DOT = -.1590629E-1
MEAN_MOTION_DDOT = .73763072E-3

CCSDS_OMM_VERS = 2.0
CREATION_DATE  = 
ORIGINATOR     = 

OBJECT_NAME    = STARLINK-36364
OBJECT_ID      = 2026-038T
CENTER_NAME    = EARTH
REF_FRAME      = TEME
TIME_SYSTEM    = UTC
MEAN_ELEMENT_THEORY = SGP/SGP4

EPOCH          = 2026-03-07T22:00:01.999584
MEAN_MOTION    = 15.96044551
ECCENTRICITY   = .00011524
INCLINATION    = 97.2701
RA_OF_ASC_NODE = 77.0916
ARG_OF_PERICENTER = 69.3567
MEAN_ANOMALY   = 329.0122

EPHEMERIS_TYPE = 0
CLASSIFICATION_TYPE = U
NORAD_CAT_ID   = 67978
ELEMENT_SET_NO = 999
REV_AT_EPOCH   = 291
BSTAR          = -.39095862E-2
MEAN_MOTION_DOT = -.158061E-1
MEAN_MOTION_DDOT = .73282325E-3

CCSDS_OMM_VERS = 2.0
CREATION_DATE  = 
ORIGINATOR     = 

OBJECT_NAME    = STARLINK-36359
OBJECT_ID      = 2026-038U
CENTER_NAME    = EARTH
REF_FRAME      = TEME
TIME_SYSTEM    = UTC
MEAN_ELEMENT_THEORY = SGP/SGP4

EPOCH          = 2026-03-07T22:00:01.999584
MEAN_MOTION    = 15.95387825
ECCENTRICITY   = .00012089
INCLINATION    = 97.2712
RA_OF_ASC_NODE = 77.0840
ARG_OF_PERICENTER = 68.7983
MEAN_ANOMALY   = 312.5606

EPHEMERIS_TYPE = 0
CLASSIFICATION_TYPE = U
NORAD_CAT_ID   = 67979
ELEMENT_SET_NO = 999
REV_AT_EPOCH   = 291
BSTAR          = -.40964501E-2
MEAN_MOTION_DOT = -.1598685E-1
MEAN_MOTION_DDOT = .74328001E-3

CCSDS_OMM_VERS = 2.0
CREATION_DATE  = 
ORIGINATOR     = 

OBJECT_NAME    = STARLINK-36882
OBJECT_ID      = 2026-038V
CENTER_NAME    = EARTH
REF_FRAME      = TEME
TIME_SYSTEM    = UTC
MEAN_ELEMENT_THEORY = SGP/SGP4

EPOCH          = 2026-03-07T22:00:01.999584
MEAN_MOTION    = 15.95882068
ECCENTRICITY   = .00012611
INCLINATION    = 97.2705
RA_OF_ASC_NODE = 77.0895
ARG_OF_PERICENTER = 66.4862
MEAN_ANOMALY   = 327.6648

EPHEMERIS_TYPE = 0
CLASSIFICATION_TYPE = U
NORAD_CAT_ID   = 67980
ELEMENT_SET_NO = 999
REV_AT_EPOCH   = 291
BSTAR          = -.39691669E-2
MEAN_MOTION_DOT = -.1590649E-1
MEAN_MOTION_DDOT = .74021394E-3

CCSDS_OMM_VERS = 2.0
CREATION_DATE  = 
ORIGINATOR     = 

OBJECT_NAME    = STARLINK-36874
OBJECT_ID      = 2026-038W
CENTER_NAME    = EARTH
REF_FRAME      = TEME
TIME_SYSTEM    = UTC
MEAN_ELEMENT_THEORY = SGP/SGP4

EPOCH          = 2026-03-07T22:00:01.999584
MEAN_MOTION    = 15.96162558
ECCENTRICITY   = .00012732
INCLINATION    = 97.2701
RA_OF_ASC_NODE = 77.0929
ARG_OF_PERICENTER = 60.3642
MEAN_ANOMALY   = 341.0978

EPHEMERIS_TYPE = 0
CLASSIFICATION_TYPE = U
NORAD_CAT_ID   = 67981
ELEMENT_SET_NO = 999
REV_AT_EPOCH   = 291
BSTAR          = -.38962095E-2
MEAN_MOTION_DOT = -.1585212E-1
MEAN_MOTION_DDOT = .73771871E-3

CCSDS_OMM_VERS = 2.0
CREATION_DATE  = 
ORIGINATOR     = 

OBJECT_NAME    = STARLINK-36879
OBJECT_ID      = 2026-038X
CENTER_NAME    = EARTH
REF_FRAME      = TEME
TIME_SYSTEM    = UTC
MEAN_ELEMENT_THEORY = SGP/SGP4

EPOCH          = 2026-03-07T22:00:01.999584
MEAN_MOTION    = 15.96310319
ECCENTRICITY   = .0001195
INCLINATION    = 97.2697
RA_OF_ASC_NODE = 77.0943
ARG_OF_PERICENTER = 65.8732
MEAN_ANOMALY   = 339.3694

EPHEMERIS_TYPE = 0
CLASSIFICATION_TYPE = U
NORAD_CAT_ID   = 67982
ELEMENT_SET_NO = 999
REV_AT_EPOCH   = 291
BSTAR          = -.38609536E-2
MEAN_MOTION_DOT = -.1583438E-1
MEAN_MOTION_DDOT = .73734507E-3

CCSDS_OMM_VERS = 2.0
CREATION_DATE  = 
ORIGINATOR     = 

OBJECT_NAME    = STARLINK-36867
OBJECT_ID      = 2026-038Y
CENTER_NAME    = EARTH
REF_FRAME      = TEME
TIME_SYSTEM    = UTC
MEAN_ELEMENT_THEORY = SGP/SGP4

EPOCH          = 2026-03-07T22:00:01.999584
MEAN_MOTION    = 15.96606390
ECCENTRICITY   = .0001377
INCLINATION    = 97.2694
RA_OF_ASC_NODE = 77.0980
ARG_OF_PERICENTER = 60.8975
MEAN_ANOMALY   = 352.0402

EPHEMERIS_TYPE = 0
CLASSIFICATION_TYPE = U
NORAD_CAT_ID   = 67983
ELEMENT_SET_NO = 999
REV_AT_EPOCH   = 291
BSTAR          = -.37811657E-2
MEAN_MOTION_DOT = -.1575866E-1
MEAN_MOTION_DDOT = .73312911E-3

CCSDS_OMM_VERS = 2.0
CREATION_DATE  = 
ORIGINATOR     = 

OBJECT_NAME    = STARLINK-36266
OBJECT_ID      = 2026-038Z
CENTER_NAME    = EARTH
REF_FRAME      = TEME
TIME_SYSTEM    = UTC
MEAN_ELEMENT_THEORY = SGP/SGP4

EPOCH          = 2026-03-07T22:00:01.999584
MEAN_MOTION    = 15.96471482
ECCENTRICITY   = .00012488
INCLINATION    = 97.2697
RA_OF_ASC_NODE = 77.0965
ARG_OF_PERICENTER = 64.9208
MEAN_ANOMALY   = 344.5483

EPHEMERIS_TYPE = 0
CLASSIFICATION_TYPE = U
NORAD_CAT_ID   = 67984
ELEMENT_SET_NO = 999
REV_AT_EPOCH   = 288
BSTAR          = -.37982322E-2
MEAN_MOTION_DOT = -.1571487E-1
MEAN_MOTION_DDOT = .72829639E-3

